OBJECT_NAME,OBJECT_ID,EPOCH,MEAN_MOTION,ECCENTRICITY,INCLINATION,RA_OF_ASC_NODE,ARG_OF_PERICENTER,MEAN_ANOMALY,EPHEMERIS_TYPE,CLASSIFICATION_TYPE,NORAD_CAT_ID,ELEMENT_SET_NO,REV_AT_EPOCH,BSTAR,MEAN_MOTION_DOT,MEAN_MOTION_DDOT
STARLINK-36464,2026-005AA,2026-05-15T07:06:04.295520,15.27578229,.00011757,43.0022,221.7673,248.9855,111.0871,0,U,67428,999,1887,.42645961E-3,.11491E-3,0
STARLINK-36513,2026-005AB,2026-05-15T05:22:39.811296,15.27576112,.00004755,43.0011,222.0878,232.1006,127.9802,0,U,67429,999,1886,.26650194E-3,.7078E-4,0
STARLINK-36515,2026-005AC,2026-05-14T06:21:46.490688,15.27588585,.00023026,43.0043,227.8001,282.0374,78.0219,0,U,67430,999,1871,.52283301E-3,.14157E-3,0
STARLINK-36443,2026-005AD,2026-05-15T06:45:43.339104,15.27583266,.00022263,43.0026,221.6611,279.2936,80.7664,0,U,67431,999,1888,.38952717E-3,.10473E-3,0
STARLINK-36460,2026-005AE,2026-05-15T06:23:43.483200,15.27576508,.00014272,42.9991,222.4065,270.5510,89.5178,0,U,67432,999,1886,.25295919E-3,.6704E-4,0
YAOGAN-50 01,2026-006A,2026-05-15T06:24:23.882976,13.83250799,.00010317,142.0363,56.6790,265.7393,94.3208,0,U,67433,999,1687,.10159279E-3,.3E-5,0
HULIANWANG DIGUI-137,2026-007A,2026-05-15T03:38:58.353792,13.29325133,.00007883,50.0068,204.3221,246.5176,113.5614,0,U,67435,999,1639,.9591148E-4,-.8E-6,0
HULIANWANG DIGUI-138,2026-007B,2026-05-14T11:48:39.073824,13.29323556,.00007957,50.0049,206.8130,242.9723,117.1068,0,U,67436,999,1630,.95275751E-4,-.8E-6,0
HULIANWANG DIGUI-139,2026-007C,2026-05-15T03:50:55.911840,13.29323232,.00007932,50.0019,204.3131,244.2362,115.8428,0,U,67437,999,1639,.10536456E-3,-.75E-6,0
HULIANWANG DIGUI-140,2026-007D,2026-05-14T12:00:41.639616,13.29324212,.00007759,50.0044,206.8509,242.8297,117.2497,0,U,67438,999,1630,.85733923E-4,-.84E-6,0
HULIANWANG DIGUI-141,2026-007E,2026-05-15T05:15:10.181376,13.29325061,.00007769,50.0032,203.9752,245.8950,114.1841,0,U,67439,999,1640,.1030218E-3,-.76E-6,0
HULIANWANG DIGUI-142,2026-007F,2026-05-15T05:03:07.672608,13.29324616,.00007658,50.0110,204.0120,246.1385,113.9407,0,U,67440,999,1640,.10457215E-3,-.76E-6,0
HULIANWANG DIGUI-143,2026-007G,2026-05-15T04:51:04.457088,13.29323215,.00006494,50.0092,203.9487,239.2599,120.8209,0,U,67441,999,1640,.86734242E-4,-.84E-6,0
HULIANWANG DIGUI-144,2026-007H,2026-05-15T04:39:03.852576,13.29327552,.0000731,50.0084,203.8955,249.0540,111.0254,0,U,67442,999,1640,.82592607E-4,-.86E-6,0
HULIANWANG DIGUI-145,2026-007J,2026-05-15T04:27:04.245984,13.29323846,.00007505,50.0084,203.8560,244.4141,115.6654,0,U,67443,999,1640,.90097186E-4,-.82E-6,0
STARLINK-36542,2026-008A,2026-05-15T03:39:43.902144,15.27580829,.00024532,42.9989,190.1626,274.9330,85.1242,0,U,67445,999,1973,.40428934E-3,.1088E-3,0
STARLINK-36539,2026-008B,2026-05-15T04:00:03.495168,15.27585030,.00019681,43.0012,190.2685,278.2614,81.8015,0,U,67446,999,1973,.23369467E-3,.6175E-4,0
STARLINK-36440,2026-008C,2026-05-15T04:05:24.477216,15.27570424,.00014525,42.9988,189.4178,270.8475,89.2210,0,U,67447,999,1974,.30574906E-3,.8158E-4,0
STARLINK-36423,2026-008D,2026-05-15T04:36:53.148384,15.27544858,.00055301,43.0021,189.5990,295.6517,64.3764,0,U,67448,999,1974,.30956079E-3,.8259E-4,0
STARLINK-36519,2026-008E,2026-05-15T04:59:02.989536,15.27601364,.00018628,43.0007,189.7074,259.4209,100.6433,0,U,67449,999,1974,.24835987E-3,.6583E-4,0
STARLINK-36525,2026-008F,2026-05-15T04:53:30.463584,15.27584817,.00030054,43.0008,189.6802,293.9869,66.0668,0,U,67450,999,1974,.27375259E-3,.728E-4,0
STARLINK-36511,2026-008G,2026-05-14T12:03:41.585760,15.27587122,.00011438,42.9988,193.8847,251.3418,108.7309,0,U,67451,999,1963,.43779872E-3,.11807E-3,0
STARLINK-36524,2026-008H,2026-05-15T03:56:21.536160,15.27584036,.00011197,42.9945,190.2431,259.0740,100.9985,0,U,67452,999,1973,.23046415E-3,.6086E-4,0
STARLINK-36518,2026-008J,2026-05-13T12:12:49.676256,15.27587438,.00021412,43.0014,199.3057,277.8877,82.1731,0,U,67453,999,1948,.27819463E-3,.7403E-4,0
STARLINK-36517,2026-008K,2026-05-14T05:37:48.785088,15.27589411,.00014474,43.0021,195.3164,258.2561,101.8129,0,U,67454,999,1959,.69362324E-3,.18879E-3,0
STARLINK-36516,2026-008L,2026-05-14T11:06:19.798560,15.27583532,.0000787,42.9999,193.5772,275.3427,84.7335,0,U,67455,999,1963,.3146804E-3,.8408E-4,0
STARLINK-36493,2026-008M,2026-05-15T04:27:36.077472,15.27583153,.00014193,42.9997,189.5467,269.2974,90.7715,0,U,67456,999,1974,.2719458E-3,.7229E-4,0
STARLINK-36529,2026-008N,2026-05-14T11:48:53.119872,15.27585160,.00020551,43.0002,193.8013,280.2040,79.8580,0,U,67457,999,1963,.26415527E-3,.7015E-4,0
STARLINK-36528,2026-008P,2026-05-15T04:01:41.458944,15.27582710,.00029416,42.9976,189.3935,275.8269,84.2247,0,U,67458,999,1974,.28261623E-3,.7524E-4,0
STARLINK-36546,2026-008Q,2026-05-15T03:50:48.158304,15.27582953,.00013862,42.9979,190.2131,271.3286,88.7407,0,U,67459,999,1973,.30915493E-3,.8256E-4,0
