STARLINK-36464          
1 67428U 26005AA  26135.29588305  .00011491  00000+0  42646-3 0  9997
2 67428  43.0022 221.7673 0001175 248.9855 111.0871 15.27578229 18874
STARLINK-36513          
1 67429U 26005AB  26135.22407189  .00007078  00000+0  26650-3 0  9994
2 67429  43.0011 222.0878 0000475 232.1006 127.9802 15.27576112 18867
STARLINK-36515          
1 67430U 26005AC  26134.26512142  .00014157  00000+0  52283-3 0  9992
2 67430  43.0043 227.8001 0002302 282.0374  78.0219 15.27588585 18717
STARLINK-36443          
1 67431U 26005AD  26135.28175161  .00010473  00000+0  38953-3 0  9997
2 67431  43.0026 221.6611 0002226 279.2936  80.7664 15.27583266 18888
STARLINK-36460          
1 67432U 26005AE  26135.26647550  .00006704  00000+0  25296-3 0  9990
2 67432  42.9991 222.4065 0001427 270.5510  89.5178 15.27576508 18860
YAOGAN-50 01            
1 67433U 26006A   26135.26694309  .00000300  00000+0  10159-3 0  9994
2 67433 142.0363  56.6790 0001031 265.7393  94.3208 13.83250799 16872
HULIANWANG DIGUI-137    
1 67435U 26007A   26135.15206428 -.00000080  00000+0  95911-4 0  9992
2 67435  50.0068 204.3221 0000788 246.5176 113.5614 13.29325133 16396
HULIANWANG DIGUI-138    
1 67436U 26007B   26134.49211891 -.00000080  00000+0  95276-4 0  9993
2 67436  50.0049 206.8130 0000795 242.9723 117.1068 13.29323556 16309
HULIANWANG DIGUI-139    
1 67437U 26007C   26135.16036935 -.00000075  00000+0  10536-3 0  9992
2 67437  50.0019 204.3131 0000793 244.2362 115.8428 13.29323232 16398
HULIANWANG DIGUI-140    
1 67438U 26007D   26134.50048194 -.00000084  00000+0  85734-4 0  9993
2 67438  50.0044 206.8509 0000775 242.8297 117.2497 13.29324212 16306
HULIANWANG DIGUI-141    
1 67439U 26007E   26135.21886784 -.00000076  00000+0  10302-3 0  9997
2 67439  50.0032 203.9752 0000776 245.8950 114.1841 13.29325061 16405
HULIANWANG DIGUI-142    
1 67440U 26007F   26135.21050547 -.00000076  00000+0  10457-3 0  9990
2 67440  50.0110 204.0120 0000765 246.1385 113.9407 13.29324616 16409
HULIANWANG DIGUI-143    
1 67441U 26007G   26135.20213492 -.00000084  00000+0  86734-4 0  9991
2 67441  50.0092 203.9487 0000649 239.2599 120.8209 13.29323215 16405
HULIANWANG DIGUI-144    
1 67442U 26007H   26135.19379459 -.00000086  00000+0  82593-4 0  9997
2 67442  50.0084 203.8955 0000731 249.0540 111.0254 13.29327552 16403
HULIANWANG DIGUI-145    
1 67443U 26007J   26135.18546581 -.00000082  00000+0  90097-4 0  9993
2 67443  50.0084 203.8560 0000750 244.4141 115.6654 13.29323846 16409
STARLINK-36542          
1 67445U 26008A   26135.15259146  .00010880  00000+0  40429-3 0  9990
2 67445  42.9989 190.1626 0002453 274.9330  85.1242 15.27580829 19735
STARLINK-36539          
1 67446U 26008B   26135.16670712  .00006175  00000+0  23369-3 0  9994
2 67446  43.0012 190.2685 0001968 278.2614  81.8015 15.27585030 19733
STARLINK-36440          
1 67447U 26008C   26135.17042219  .00008158  00000+0  30575-3 0  9991
2 67447  42.9988 189.4178 0001452 270.8475  89.2210 15.27570424 19743
STARLINK-36423          
1 67448U 26008D   26135.19228181  .00008259  00000+0  30956-3 0  9993
2 67448  43.0021 189.5990 0005530 295.6517  64.3764 15.27544858 19740
STARLINK-36519          
1 67449U 26008E   26135.20767349  .00006583  00000+0  24836-3 0  9998
2 67449  43.0007 189.7074 0001862 259.4209 100.6433 15.27601364 19743
STARLINK-36525          
1 67450U 26008F   26135.20382481  .00007280  00000+0  27375-3 0  9996
2 67450  43.0008 189.6802 0003005 293.9869  66.0668 15.27584817 19748
STARLINK-36511          
1 67451U 26008G   26134.50256465  .00011807  00000+0  43780-3 0  9999
2 67451  42.9988 193.8847 0001143 251.3418 108.7309 15.27587122 19635
STARLINK-36524          
1 67452U 26008H   26135.16413815  .00006086  00000+0  23046-3 0  9993
2 67452  42.9945 190.2431 0001119 259.0740 100.9985 15.27584036 19731
STARLINK-36518          
1 67453U 26008J   26133.50890829  .00007403  00000+0  27819-3 0  9990
2 67453  43.0014 199.3057 0002141 277.8877  82.1731 15.27587438 19481
STARLINK-36517          
1 67454U 26008K   26134.23459242  .00018879  00000+0  69362-3 0  9990
2 67454  43.0021 195.3164 0001447 258.2561 101.8129 15.27589411 19591
STARLINK-36516          
1 67455U 26008L   26134.46272915  .00008408  00000+0  31468-3 0  9999
2 67455  42.9999 193.5772 0000787 275.3427  84.7335 15.27583532 19637
STARLINK-36493          
1 67456U 26008M   26135.18583423  .00007229  00000+0  27195-3 0  9991
2 67456  42.9997 189.5467 0001419 269.2974  90.7715 15.27583153 19744
STARLINK-36529          
1 67457U 26008N   26134.49228148  .00007015  00000+0  26416-3 0  9993
2 67457  43.0002 193.8013 0002055 280.2040  79.8580 15.27585160 19639
STARLINK-36528          
1 67458U 26008P   26135.16784096  .00007524  00000+0  28262-3 0  9994
2 67458  42.9976 189.3935 0002941 275.8269  84.2247 15.27582710 19748
STARLINK-36546          
1 67459U 26008Q   26135.16027961  .00008256  00000+0  30915-3 0  9997
2 67459  42.9979 190.2131 0001386 271.3286  88.7407 15.27582953 19738
